NORAD_CAT_ID,OBJECT_NAME,OBJECT_TYPE,EPOCH,MEAN_MOTION,ECCENTRICITY,INCLINATION,RA_OF_ASC_NODE,ARG_OF_PERICENTER,MEAN_ANOMALY,BSTAR,MEAN_MOTION_DOT,MEAN_MOTION_DDOT,TLE_LINE0,TLE_LINE1,TLE_LINE2,SEMIMAJOR_AXIS,PERIOD,APOGEE,PERIGEE,DECAYED
55300.0,STARLINK-5308,PAYLOAD,2024-05-10 02:10:53,14.98368521,0.0002903,69.9998,270.0608,272.6067,87.476,0.00045084,5.296e-05,0.0,0 STARLINK-5308,1 55300U 23010AH  24131.09090128  .00005296  00000-0  45084-3 0  9995,2 55300  69.9998 270.0608 0002903 272.6067  87.4760 14.98368521 72819,6950.074,96.105,573.956,569.921,0.0
55300.0,STARLINK-5308,PAYLOAD,2024-05-10 13:23:54,14.98310607,0.0004157,69.9992,268.883,297.4977,62.5759,-0.0003181,-3.885e-05,0.0,0 STARLINK-5308,1 55300U 23010AH  24131.55827217 -.00003885  00000-0 -31810-3 0  9999,2 55300  69.9992 268.8830 0004157 297.4977  62.5759 14.98310607 72884,6950.253,96.108,575.007,569.229,0.0
55300.0,STARLINK-5308,PAYLOAD,2024-05-10 15:00:02,14.98316861,0.0002611,70.0001,268.7147,267.0808,93.0052,-0.00028366,-3.475e-05,0.0,0 STARLINK-5308,1 55300U 23010AH  24131.62502603 -.00003475  00000-0 -28366-3 0  9993,2 55300  70.0001 268.7147 0002611 267.0808  93.0052 14.98316861 73207,6950.234,96.108,573.913,570.284,0.0
55300.0,STARLINK-5308,PAYLOAD,2024-05-10 18:12:18,14.98317096,0.0002598,70.0003,268.3793,267.273,92.8132,-0.00026796,-3.288e-05,0.0,0 STARLINK-5308,1 55300U 23010AH  24131.75854595 -.00003288  00000-0 -26796-3 0  9994,2 55300  70.0003 268.3793 0002598 267.2730  92.8132 14.98317096 72916,6950.233,96.108,573.903,570.292,0.0
55300.0,STARLINK-5308,PAYLOAD,2024-05-11 13:25:50,14.98367549,0.0002569,69.9999,266.3584,266.7696,93.3169,0.00032221,3.757e-05,0.0,0 STARLINK-5308,1 55300U 23010AH  24132.55961550  .00003757  00000-0  32221-3 0  9992,2 55300  69.9999 266.3584 0002569 266.7696  93.3169 14.98367549 73034,6950.077,96.105,573.727,570.156,0.0
55300.0,STARLINK-5308,PAYLOAD,2024-05-11 18:14:19,14.98304094,0.0002665,69.9993,265.8537,277.6663,82.4193,-0.0004262,-5.171e-05,0.0,0 STARLINK-5308,1 55300U 23010AH  24132.75994641 -.00005171  00000-0 -42620-3 0  9999,2 55300  69.9993 265.8537 0002665 277.6663  82.4193 14.98304094 73067,6950.273,96.109,573.99,570.286,0.0
55300.0,STARLINK-5308,PAYLOAD,2024-05-12 02:15:02,14.98276672,0.0002827,69.9994,265.0116,281.355,78.7291,-0.0007346,-8.835e-05,0.0,0 STARLINK-5308,1 55300U 23010AH  24133.09377856 -.00008835  00000-0 -73460-3 0  9996,2 55300  69.9994 265.0116 0002827 281.3550  78.7291 14.98276672 73113,6950.358,96.11,574.188,570.258,0.0
55300.0,STARLINK-5308,PAYLOAD,2024-05-12 13:28:03,14.98240487,0.000317,69.9997,263.8335,271.5053,88.5743,-0.0011685,-0.00013976,0.0,0 STARLINK-5308,1 55300U 23010AH  24133.56114890 -.00013976  00000-0 -11685-2 0  9997,2 55300  69.9997 263.8335 0003170 271.5053  88.5743 14.98240487 73189,6950.47,96.113,574.538,570.131,0.0
55300.0,STARLINK-5308,PAYLOAD,2024-05-12 15:04:11,14.98220824,0.000309,69.9992,263.6648,271.6841,88.3964,-0.00080068,-9.607e-05,0.0,0 STARLINK-5308,1 55300U 23010AH  24133.62791450 -.00009607  00000-0 -80068-3 0  9995,2 55300  69.9992 263.6648 0003090 271.6841  88.3964 14.98220824 73508,6950.531,96.114,574.543,570.248,0.0
55300.0,STARLINK-5308,PAYLOAD,2024-05-12 18:16:28,14.98219094,0.0003117,69.9993,263.3283,271.5315,88.5486,-0.00079084,-9.489e-05,0.0,0 STARLINK-5308,1 55300U 23010AH  24133.76144416 -.00009489  00000-0 -79084-3 0  9998,2 55300  69.9993 263.3283 0003117 271.5315  88.5486 14.98219094 73526,6950.536,96.114,574.567,570.234,0.0
55300.0,STARLINK-5308,PAYLOAD,2024-05-13 02:17:05,14.98279082,0.0003414,69.9998,262.4861,272.8636,87.2132,-0.00015904,-1.988e-05,0.0,0 STARLINK-5308,1 55300U 23010AH  24134.09520507 -.00001988  00000-0 -15904-3 0  9991,2 55300  69.9998 262.4861 0003414 272.8636  87.2132 14.98279082 73261,6950.35,96.11,574.588,569.843,0.0
55300.0,STARLINK-5308,PAYLOAD,2024-05-13 11:53:50,14.98349289,0.0003229,69.9995,261.4758,275.2262,84.8529,-0.0001345,-1.698e-05,0.0,0 STARLINK-5308,1 55300U 23010AH  24134.49572808 -.00001698  00000-0 -13450-3 0  9998,2 55300  69.9995 261.4758 0003229 275.2262  84.8529 14.98349289 73325,6950.133,96.106,574.242,569.754,0.0
55300.0,STARLINK-5308,PAYLOAD,2024-05-13 15:06:06,14.9834974,0.0003287,69.9995,261.1391,276.6574,83.4211,-5.6273e-05,-7.65e-06,0.0,0 STARLINK-5308,1 55300U 23010AH  24134.62924505 -.00000765  00000-0 -56273-4 0  9993,2 55300  69.9995 261.1391 0003287 276.6574  83.4211 14.98349740 73651,6950.132,96.106,574.281,569.712,0.0
55300.0,STARLINK-5308,PAYLOAD,2024-05-14 11:55:51,14.98303441,0.0003611,69.9998,258.9509,279.2377,80.8374,0.0012003,0.00014249,0.0,0 STARLINK-5308,1 55300U 23010AH  24135.49712605  .00014249  00000-0  12003-2 0  9996,2 55300  69.9998 258.9509 0003611 279.2377  80.8374 14.98303441 73479,6950.275,96.109,574.65,569.63,0.0
55300.0,STARLINK-5308,PAYLOAD,2024-05-14 15:08:07,14.98316751,0.000377,69.9996,258.6149,279.1713,80.902,0.001254,0.00014897,0.0,0 STARLINK-5308,1 55300U 23010AH  24135.63063773  .00014897  00000-0  12540-2 0  9992,2 55300  69.9996 258.6149 0003770 279.1713  80.9020 14.98316751 73492,6950.234,96.108,574.719,569.479,0.0
55300.0,STARLINK-5308,PAYLOAD,2024-05-15 11:57:51,14.98367492,0.0004218,69.9987,256.4257,283.2134,76.8555,4.0134e-05,3.86e-06,0.0,0 STARLINK-5308,1 55300U 23010AH  24136.49851288  .00000386  00000-0  40134-4 0  9993,2 55300  69.9987 256.4257 0004218 283.2134  76.8555 14.98367492 73629,6950.077,96.105,574.873,569.01,0.0
55300.0,STARLINK-5308,PAYLOAD,2024-05-15 18:22:22,14.98370092,0.0004044,69.9999,255.7536,281.6091,78.4614,8.7252e-05,9.49e-06,0.0,0 STARLINK-5308,1 55300U 23010AH  24136.76554300  .00000949  00000-0  87252-4 0  9995,2 55300  69.9999 255.7536 0004044 281.6091  78.4614 14.98370092 73977,6950.069,96.104,574.745,569.123,0.0
55300.0,STARLINK-5308,PAYLOAD,2024-05-16 00:46:55,14.98362715,0.0003346,70.0021,255.0787,280.7815,79.2967,-0.00013666,-1.725e-05,0.0,0 STARLINK-5308,1 55300U 23010AH  24137.03258679 -.00001725  00000-0 -13666-3 0  9998,2 55300  70.0021 255.0787 0003346 280.7815  79.2967 14.98362715 73709,6950.092,96.105,574.282,569.631,0.0
55300.0,STARLINK-5308,PAYLOAD,2024-05-16 13:35:59,14.98362669,0.0003419,70.0006,253.735,273.9785,86.0983,-0.00028956,-3.549e-05,0.0,0 STARLINK-5308,1 55300U 23010AH  24137.56665989 -.00003549  00000-0 -28956-3 0  9996,2 55300  70.0006 253.7350 0003419 273.9785  86.0983 14.98362669 74099,6950.092,96.105,574.333,569.581,0.0
55300.0,STARLINK-5308,PAYLOAD,2024-05-17 00:48:55,14.98355847,0.0003778,70.0007,252.5566,275.7163,84.3565,-0.00015495,-1.943e-05,0.0,0 STARLINK-5308,1 55300U 23010AH  24138.03397158 -.00001943  00000-0 -15495-3 0  9999,2 55300  70.0007 252.5566 0003778 275.7163  84.3565 14.98355847 73854,6950.113,96.105,574.604,569.352,0.0
55300.0,STARLINK-5308,PAYLOAD,2024-05-17 13:38:00,14.98338111,0.0003647,70.0004,251.21,269.55,90.5241,-0.0001998,-2.477e-05,0.0,0 STARLINK-5308,1 55300U 23010AH  24138.56805705 -.00002477  00000-0 -19980-3 0  9995,2 55300  70.0004 251.2100 0003647 269.5500  90.5241 14.98338111 73936,6950.168,96.106,574.568,569.498,0.0
55300.0,STARLINK-5308,PAYLOAD,2024-05-18 13:39:59,14.98345314,0.0003875,69.9987,248.6826,268.1532,91.9183,1.276e-05,5.9e-07,0.0,0 STARLINK-5308,1 55300U 23010AH  24139.56944111  .00000059  00000-0  12760-4 0  9993,2 55300  69.9987 248.6826 0003875 268.1532  91.9183 14.98345314 74081,6950.146,96.106,574.704,569.317,0.0
55300.0,STARLINK-5308,PAYLOAD,2024-05-18 16:52:15,14.98348946,0.0003805,69.9991,248.3463,268.3867,91.6857,6.1585e-05,6.42e-06,0.0,0 STARLINK-5308,1 55300U 23010AH  24139.70295650  .00000642  00000-0  61585-4 0  9993,2 55300  69.9991 248.3463 0003805 268.3867  91.6857 14.98348946 74412,6950.134,96.106,574.644,569.355,0.0
55300.0,STARLINK-5308,PAYLOAD,2024-05-19 00:52:56,14.98327066,0.0003534,69.9993,247.5059,271.8398,88.2356,0.0001012,1.115e-05,0.0,0 STARLINK-5308,1 55300U 23010AH  24140.03676762  .00001115  00000-0  10120-3 0  9992,2 55300  69.9993 247.5059 0003534 271.8398  88.2356 14.98327066 74150,6950.202,96.107,574.523,569.611,0.0
55300.0,STARLINK-5308,PAYLOAD,2024-05-19 13:42:03,14.983068,0.0003454,69.9999,246.1587,267.5496,92.5268,-0.00021542,-2.661e-05,0.0,0 STARLINK-5308,1 55300U 23010AH  24140.57087390 -.00002661  00000-0 -21542-3 0  9993,2 55300  69.9999 246.1587 0003454 267.5496  92.5268 14.98306800 74545,6950.265,96.108,574.53,569.729,0.0
55300.0,STARLINK-5308,PAYLOAD,2024-05-20 05:43:23,14.9832437,0.000389,69.9989,244.4737,267.3224,92.749,-3.7574e-05,-5.41e-06,0.0,0 STARLINK-5308,1 55300U 23010AH  24141.23846103 -.00000541  00000-0 -37574-4 0  9990,2 55300  69.9989 244.4737 0003890 267.3224  92.7490 14.98324370 74331,6950.21,96.107,574.779,569.372,0.0
55300.0,STARLINK-5308,PAYLOAD,2024-05-20 10:31:46,14.98330191,0.0003768,69.9998,243.9707,270.5882,89.4845,5.3464e-05,5.45e-06,0.0,0 STARLINK-5308,1 55300U 23010AH  24141.43873535  .00000545  00000-0  53464-4 0  9999,2 55300  69.9998 243.9707 0003768 270.5882  89.4845 14.98330191 74360,6950.192,96.107,574.676,569.438,0.0
55300.0,STARLINK-5308,PAYLOAD,2024-05-20 13:44:02,14.98337331,0.0003247,69.9999,243.6335,262.053,98.0261,9.5626e-06,2.1e-07,0.0,0 STARLINK-5308,1 55300U 23010AH  24141.57225214  .00000021  00000-0  95626-5 0  9995,2 55300  69.9999 243.6335 0003247 262.0530  98.0261 14.98337331 74690,6950.17,96.107,574.292,569.779,0.0
55300.0,STARLINK-5308,PAYLOAD,2024-05-20 16:56:17,14.98347393,0.0003662,69.9994,243.2971,266.0824,93.9916,7.922e-05,8.53e-06,0.0,0 STARLINK-5308,1 55300U 23010AH  24141.70576225  .00000853  00000-0  79220-4 0  9995,2 55300  69.9994 243.2971 0003662 266.0824  93.9916 14.98347393 74407,6950.139,96.106,574.549,569.459,0.0
55300.0,STARLINK-5308,PAYLOAD,2024-05-21 08:57:40,14.9831254,0.0003583,69.9999,241.6141,267.4692,92.6057,0.00017889,2.041e-05,0.0,0 STARLINK-5308,1 55300U 23010AH  24142.37338213  .00002041  00000-0  17889-3 0  9995,2 55300  69.9999 241.6141 0003583 267.4692  92.6057 14.98312540 74502,6950.247,96.108,574.602,569.622,0.0
